#aV2010 12  1  0  0   .00000000      96 DD+AD WGS84 FIT  NGA
## 1612 259200.00000000   900.00000000 55531  .0000000000000
+   32     1  2  3  4  5  6  7  8  9 10 11 12 13 14 15 16 17
+         18 19 20 21 22 23 24 25 26 27 28 29 30 31 32  0  0
+          0  0  0  0  0  0  0  0  0  0  0  0  0  0  0  0  0
+          0  0  0  0  0  0  0  0  0  0  0  0  0  0  0  0  0
+          0  0  0  0  0  0  0  0  0  0  0  0  0  0  0  0  0
++         0  0  0  0  0  0  0  0  0  0  0  0  0  0  0  0  0
++         0  0  0  0  0  0  0  0  0  0  0  0  0  0  0  0  0
++         0  0  0  0  0  0  0  0  0  0  0  0  0  0  0  0  0
++         0  0  0  0  0  0  0  0  0  0  0  0  0  0  0  0  0
++         0  0  0  0  0  0  0  0  0  0  0  0  0  0  0  0  0
%c cc cc ccc ccc cccc cccc cccc cccc ccccc ccccc ccccc ccccc
%c cc cc ccc ccc cccc cccc cccc cccc ccccc ccccc ccccc ccccc
%f  0.0000000  0.000000000  0.00000000000  0.000000000000000
%f  0.0000000  0.000000000  0.00000000000  0.000000000000000
%i    0    0    0    0      0      0      0      0         0
%i    0    0    0    0      0      0      0      0         0
/*      NGA, ST. LOUIS,MO.                                  
/*   EPHEMERIS COMPUTED FROM  3 DAYS OF DATA                
/* CCCCCCCCCCCCCCCCCCCCCCCCCCCCCCCCCCCCCCCCCCCCCCCCCCCCCCCCC
/* CCCCCCCCCCCCCCCCCCCCCCCCCCCCCCCCCCCCCCCCCCCCCCCCCCCCCCCCC
*  2010 12  1  3 45   .00000000                                                 
P  1   -654.944593 -19019.312069 -18587.015560   -187.191396                    
V  1  16238.641370 -16904.695118  16951.213512      -.035055                    
P  2  13415.589542  22259.192147  -6570.387776    305.824407                    
V  2    128.325303   8773.026071  29488.295166       .024028                    
P  3 -20893.787471 -10937.683760 -12929.933632    642.493833                    
V  3  15875.486980  -1808.296159 -24575.294454       .051547                    
P  4   6461.303958  25340.378969   3176.945763    233.327103                    
V  4  -5035.781435  -2813.799735  31130.317607       .097534                    
P  5  11977.771600   9551.480531 -21710.059013    -75.839641                    
V  5 -17830.285142  21002.987192   -498.516457      -.059687                    
P  6 -16995.472028 -13566.935473 -15211.311574    403.831145                    
V  6  19756.790688    104.768233 -21750.247383      -.112103                    
P  7  -8673.961973  15629.020835 -19573.824565      -.113607                    
V  7  -9292.788783 -23124.014184 -14538.414891       .003928                    
P  8  -1716.053437  23390.996990 -11890.808911      6.998575                    
V  8  -5757.009606 -14270.113332 -27740.714919      -.000315                    
P  9  16127.101517   4832.586806  20007.301946     45.858558                    
V  9   8563.683763  25159.733914 -12629.311194       .023718                    
P 10  -1093.284448  19958.506100 -17501.341036    -59.183865                    
V 10 -16151.137819  15086.519864  18783.990315      -.008686                    
P 11 -18309.995719    376.066146  19025.050632   -107.946385                    
V 11 -12361.689996 -21846.732088 -10924.647211      -.028772                    
P 12  20002.133338  -5888.173282  16394.080470    -48.951136                    
V 12 -12429.641415  16747.586486  21372.717820       .034709                    
P 13 -18515.408845   7157.960038 -17803.336537    290.457528                    
V 13 -21246.177041  -6702.347428  19501.028398      -.011330                    
P 14   -355.356314 -15121.177962  22004.069158    111.821103                    
V 14  26768.618830   6193.395235   4590.570700       .032229                    
P 15  26375.923104   3602.568247   1109.238634   -177.068985                    
V 15    873.124872   3163.179570 -31413.818687       .043335                    
P 16  -7488.231148 -13505.666637 -21542.188045   -130.644626                    
V 16  18875.288655 -19908.173563   6183.807073      -.032117                    
P 17  -2029.687381  15176.720349  21819.908473    178.659426                    
V 17 -26838.871210  -5690.341561   1249.330921       .008831                    
P 18  16511.259908 -20496.007706   1704.484480    107.735624                    
V 18   4160.593186   1223.068947 -31321.793316       .021391                    
P 19 -25630.920539  -7569.627154   -874.070568    -87.973280                    
V 19   1755.033210  -2254.080588 -31449.463302      -.034276                    
P 20 -20502.086471   9323.623655  13888.357163     49.284251                    
V 20   8964.992962 -15817.531304  23681.082287      -.001963                    
P 21   8169.608758 -17195.677711 -17897.129938   -106.184779                    
V 21   9971.596420  21737.227731 -16626.288689      -.027176                    
P 22   7930.384429 -22308.500425  12114.710837    157.802395                    
V 22  12437.607109  -9291.758895 -25700.691410      -.006726                    
P 23 -25318.557429   1038.468030  -8509.904662    340.625481                    
V 23 -10083.300942  -4195.542778  29167.362735      -.021118                    
P 24 -16718.368678  -7736.699067  19297.326871    343.698082                    
V 24  -5653.889732 -23686.200679 -14170.646642       .034010                    
P 25  19416.832022 -17209.844484   5686.428611    -55.016864                    
V 25  -2555.941536   7286.391583  30674.384044      -.023802                    
P 26  21461.129440  12637.688481 -10378.819229    -62.380422                    
V 26 -12091.853254  -1850.987009 -28451.524222      -.084049                    
P 27  17319.989455  11159.297886  17573.822507    212.780635                    
V 27   6955.726873  19695.090878 -19919.924862       .035788                    
P 28 -10927.936874  22035.384452  10137.254177      7.224701                    
V 28  -9963.684982   7449.205145 -28600.573826       .017460                    
P 29  20018.158643  -6957.735721 -15908.304963    167.392187                    
V 29  19451.047174   6327.437871  21640.210085       .026765                    
P 30   8604.789441 -23016.917961 -10536.960102    300.993058                    
V 30   9759.868911  -8554.420976  27788.216886       .032959                    
P 31  -7926.251918 -25222.938304   1142.924903     14.106151                    
V 31   2668.946876    342.167031  32226.576026       .038332                    
P 32 -18634.667222   -508.719935  19083.026053   -143.417979                    
V 32  15808.030278 -17755.805160  15596.223202      -.083434                    
EOF
